[{"OBJECT_NAME":"STARLINK-3324","OBJECT_ID":"2022-001M","EPOCH":"2025-07-28T02:04:18.148224","MEAN_MOTION":15.08830223,"ECCENTRICITY":0.0001371,"INCLINATION":53.2174,"RA_OF_ASC_NODE":97.4037,"ARG_OF_PERICENTER":88.2711,"MEAN_ANOMALY":271.8438,"EPHEMERIS_TYPE":0,"CLASSIFICATION_TYPE":"U","NORAD_CAT_ID":50814,"ELEMENT_SET_NO":999,"REV_AT_EPOCH":19650,"BSTAR":-0.00012064,"MEAN_MOTION_DOT":-2.207e-5,"MEAN_MOTION_DDOT":0},{"OBJECT_NAME":"STARLINK-3234","OBJECT_ID":"2022-001N","EPOCH":"2025-07-29T02:10:59.006208","MEAN_MOTION":15.08846107,"ECCENTRICITY":0.0001472,"INCLINATION":53.2178,"RA_OF_ASC_NODE":92.8955,"ARG_OF_PERICENTER":82.1208,"MEAN_ANOMALY":277.9951,"EPHEMERIS_TYPE":0,"CLASSIFICATION_TYPE":"U","NORAD_CAT_ID":50815,"ELEMENT_SET_NO":999,"REV_AT_EPOCH":19792,"BSTAR":-1.6488e-5,"MEAN_MOTION_DOT":-5.5e-6,"MEAN_MOTION_DDOT":0},{"OBJECT_NAME":"STARLINK-3342","OBJECT_ID":"2022-001P","EPOCH":"2025-07-28T09:34:45.006528","MEAN_MOTION":15.08834629,"ECCENTRICITY":0.000152,"INCLINATION":53.2171,"RA_OF_ASC_NODE":96.0035,"ARG_OF_PERICENTER":91.4637,"MEAN_ANOMALY":268.6529,"EPHEMERIS_TYPE":0,"CLASSIFICATION_TYPE":"U","NORAD_CAT_ID":50816,"ELEMENT_SET_NO":999,"REV_AT_EPOCH":19654,"BSTAR":8.7648e-6,"MEAN_MOTION_DOT":-1.49e-6,"MEAN_MOTION_DDOT":0},{"OBJECT_NAME":"STARLINK-3341","OBJECT_ID":"2022-001Q","EPOCH":"2025-07-28T19:44:08.700288","MEAN_MOTION":15.08834978,"ECCENTRICITY":0.000159,"INCLINATION":53.218,"RA_OF_ASC_NODE":94.1004,"ARG_OF_PERICENTER":101.0008,"MEAN_ANOMALY":259.1163,"EPHEMERIS_TYPE":0,"CLASSIFICATION_TYPE":"U","NORAD_CAT_ID":50817,"ELEMENT_SET_NO":999,"REV_AT_EPOCH":19786,"BSTAR":0.00010922,"MEAN_MOTION_DOT":1.45e-5,"MEAN_MOTION_DDOT":0},{"OBJECT_NAME":"STARLINK-3336","OBJECT_ID":"2022-001R","EPOCH":"2025-07-28T22:28:25.498272","MEAN_MOTION":15.08847172,"ECCENTRICITY":0.0001422,"INCLINATION":53.2164,"RA_OF_ASC_NODE":93.5911,"ARG_OF_PERICENTER":94.723,"MEAN_ANOMALY":265.3924,"EPHEMERIS_TYPE":0,"CLASSIFICATION_TYPE":"U","NORAD_CAT_ID":50818,"ELEMENT_SET_NO":999,"REV_AT_EPOCH":19790,"BSTAR":-0.00011101,"MEAN_MOTION_DOT":-2.055e-5,"MEAN_MOTION_DDOT":0},{"OBJECT_NAME":"STARLINK-3327","OBJECT_ID":"2022-001S","EPOCH":"2025-07-28T22:39:01.512864","MEAN_MOTION":15.08841569,"ECCENTRICITY":9.69e-5,"INCLINATION":53.2158,"RA_OF_ASC_NODE":93.5558,"ARG_OF_PERICENTER":90.1619,"MEAN_ANOMALY":269.9484,"EPHEMERIS_TYPE":0,"CLASSIFICATION_TYPE":"U","NORAD_CAT_ID":50819,"ELEMENT_SET_NO":999,"REV_AT_EPOCH":19783,"BSTAR":0.00017943,"MEAN_MOTION_DOT":2.569e-5,"MEAN_MOTION_DDOT":0},{"OBJECT_NAME":"STARLINK-3339","OBJECT_ID":"2022-001T","EPOCH":"2025-07-29T01:23:18.125952","MEAN_MOTION":15.08838017,"ECCENTRICITY":0.0001396,"INCLINATION":53.2176,"RA_OF_ASC_NODE":93.0464,"ARG_OF_PERICENTER":102.169,"MEAN_ANOMALY":257.9458,"EPHEMERIS_TYPE":0,"CLASSIFICATION_TYPE":"U","NORAD_CAT_ID":50820,"ELEMENT_SET_NO":999,"REV_AT_EPOCH":19792,"BSTAR":1.2289e-5,"MEAN_MOTION_DOT":-9.2e-7,"MEAN_MOTION_DDOT":0},{"OBJECT_NAME":"STARLINK-3346","OBJECT_ID":"2022-001U","EPOCH":"2025-07-28T23:10:48.144000","MEAN_MOTION":15.08844859,"ECCENTRICITY":0.0001213,"INCLINATION":53.2168,"RA_OF_ASC_NODE":93.3415,"ARG_OF_PERICENTER":94.1059,"MEAN_ANOMALY":266.0072,"EPHEMERIS_TYPE":0,"CLASSIFICATION_TYPE":"U","NORAD_CAT_ID":50821,"ELEMENT_SET_NO":999,"REV_AT_EPOCH":19788,"BSTAR":-4.5158e-5,"MEAN_MOTION_DOT":-1.007e-5,"MEAN_MOTION_DDOT":0},{"OBJECT_NAME":"STARLINK-3343","OBJECT_ID":"2022-001V","EPOCH":"2025-07-29T01:12:42.184800","MEAN_MOTION":15.08836541,"ECCENTRICITY":0.000138,"INCLINATION":53.2165,"RA_OF_ASC_NODE":93.0773,"ARG_OF_PERICENTER":82.073,"MEAN_ANOMALY":278.0419,"EPHEMERIS_TYPE":0,"CLASSIFICATION_TYPE":"U","NORAD_CAT_ID":50822,"ELEMENT_SET_NO":999,"REV_AT_EPOCH":19789,"BSTAR":2.5258e-5,"MEAN_MOTION_DOT":1.14e-6,"MEAN_MOTION_DDOT":0},{"OBJECT_NAME":"STARLINK-3334","OBJECT_ID":"2022-001W","EPOCH":"2025-07-29T02:00:23.334624","MEAN_MOTION":15.08842966,"ECCENTRICITY":0.0001285,"INCLINATION":53.2164,"RA_OF_ASC_NODE":92.9249,"ARG_OF_PERICENTER":90.7276,"MEAN_ANOMALY":269.3864,"EPHEMERIS_TYPE":0,"CLASSIFICATION_TYPE":"U","NORAD_CAT_ID":50823,"ELEMENT_SET_NO":999,"REV_AT_EPOCH":19793,"BSTAR":-3.0616e-7,"MEAN_MOTION_DOT":-2.93e-6,"MEAN_MOTION_DDOT":0},{"OBJECT_NAME":"STARLINK-3332","OBJECT_ID":"2022-001Y","EPOCH":"2025-07-28T23:42:37.838880","MEAN_MOTION":15.08817835,"ECCENTRICITY":0.0001638,"INCLINATION":53.2173,"RA_OF_ASC_NODE":93.3599,"ARG_OF_PERICENTER":104.5567,"MEAN_ANOMALY":255.5607,"EPHEMERIS_TYPE":0,"CLASSIFICATION_TYPE":"U","NORAD_CAT_ID":50825,"ELEMENT_SET_NO":999,"REV_AT_EPOCH":19790,"BSTAR":0.00018882,"MEAN_MOTION_DOT":2.717e-5,"MEAN_MOTION_DDOT":0},{"OBJECT_NAME":"STARLINK-3329","OBJECT_ID":"2022-001AA","EPOCH":"2025-07-28T09:40:02.626752","MEAN_MOTION":15.08837858,"ECCENTRICITY":0.0001369,"INCLINATION":53.218,"RA_OF_ASC_NODE":95.9831,"ARG_OF_PERICENTER":82.784,"MEAN_ANOMALY":277.3308,"EPHEMERIS_TYPE":0,"CLASSIFICATION_TYPE":"U","NORAD_CAT_ID":50827,"ELEMENT_SET_NO":999,"REV_AT_EPOCH":19654,"BSTAR":-1.3137e-5,"MEAN_MOTION_DOT":-4.97e-6,"MEAN_MOTION_DDOT":0},{"OBJECT_NAME":"STARLINK-3290","OBJECT_ID":"2022-001AB","EPOCH":"2025-07-28T02:58:39.787968","MEAN_MOTION":15.08835341,"ECCENTRICITY":0.0001376,"INCLINATION":53.2169,"RA_OF_ASC_NODE":97.1267,"ARG_OF_PERICENTER":87.3793,"MEAN_ANOMALY":272.7356,"EPHEMERIS_TYPE":0,"CLASSIFICATION_TYPE":"U","NORAD_CAT_ID":50828,"ELEMENT_SET_NO":999,"REV_AT_EPOCH":19635,"BSTAR":2.566e-6,"MEAN_MOTION_DOT":-2.47e-6,"MEAN_MOTION_DDOT":0},{"OBJECT_NAME":"STARLINK-3294","OBJECT_ID":"2022-001AC","EPOCH":"2025-07-28T09:50:38.413248","MEAN_MOTION":15.08840949,"ECCENTRICITY":0.0001434,"INCLINATION":53.2179,"RA_OF_ASC_NODE":95.9509,"ARG_OF_PERICENTER":90.2623,"MEAN_ANOMALY":269.8534,"EPHEMERIS_TYPE":0,"CLASSIFICATION_TYPE":"U","NORAD_CAT_ID":50829,"ELEMENT_SET_NO":999,"REV_AT_EPOCH":19781,"BSTAR":1.3788e-5,"MEAN_MOTION_DOT":-6.9e-7,"MEAN_MOTION_DDOT":0},{"OBJECT_NAME":"STARLINK-3278","OBJECT_ID":"2022-001AD","EPOCH":"2025-07-29T02:09:39.759264","MEAN_MOTION":15.08846112,"ECCENTRICITY":0.00016,"INCLINATION":53.2172,"RA_OF_ASC_NODE":102.9007,"ARG_OF_PERICENTER":89.8348,"MEAN_ANOMALY":270.2828,"EPHEMERIS_TYPE":0,"CLASSIFICATION_TYPE":"U","NORAD_CAT_ID":50830,"ELEMENT_SET_NO":999,"REV_AT_EPOCH":19778,"BSTAR":6.0371e-5,"MEAN_MOTION_DOT":6.73e-6,"MEAN_MOTION_DDOT":0},{"OBJECT_NAME":"STARLINK-3299","OBJECT_ID":"2022-001AE","EPOCH":"2025-07-28T23:16:05.684736","MEAN_MOTION":15.08860637,"ECCENTRICITY":0.0001512,"INCLINATION":53.2173,"RA_OF_ASC_NODE":93.5069,"ARG_OF_PERICENTER":106.1402,"MEAN_ANOMALY":253.9757,"EPHEMERIS_TYPE":0,"CLASSIFICATION_TYPE":"U","NORAD_CAT_ID":50831,"ELEMENT_SET_NO":999,"REV_AT_EPOCH":19790,"BSTAR":0.00022701,"MEAN_MOTION_DOT":3.329e-5,"MEAN_MOTION_DDOT":0},{"OBJECT_NAME":"STARLINK-3328","OBJECT_ID":"2022-001AF","EPOCH":"2025-07-29T00:35:40.157376","MEAN_MOTION":15.08834194,"ECCENTRICITY":0.0001453,"INCLINATION":53.2177,"RA_OF_ASC_NODE":103.2423,"ARG_OF_PERICENTER":87.1087,"MEAN_ANOMALY":273.0071,"EPHEMERIS_TYPE":0,"CLASSIFICATION_TYPE":"U","NORAD_CAT_ID":50832,"ELEMENT_SET_NO":999,"REV_AT_EPOCH":19775,"BSTAR":0.00014859,"MEAN_MOTION_DOT":2.077e-5,"MEAN_MOTION_DDOT":0},{"OBJECT_NAME":"STARLINK-3331","OBJECT_ID":"2022-001AH","EPOCH":"2025-07-28T22:37:42.722112","MEAN_MOTION":15.08841234,"ECCENTRICITY":0.0001545,"INCLINATION":53.2188,"RA_OF_ASC_NODE":103.5698,"ARG_OF_PERICENTER":94.1978,"MEAN_ANOMALY":265.9191,"EPHEMERIS_TYPE":0,"CLASSIFICATION_TYPE":"U","NORAD_CAT_ID":50834,"ELEMENT_SET_NO":999,"REV_AT_EPOCH":19776,"BSTAR":-5.1855e-5,"MEAN_MOTION_DOT":-1.113e-5,"MEAN_MOTION_DDOT":0},{"OBJECT_NAME":"STARLINK-3310","OBJECT_ID":"2022-001AJ","EPOCH":"2025-07-29T01:53:47.478336","MEAN_MOTION":15.08840074,"ECCENTRICITY":0.0001639,"INCLINATION":53.2171,"RA_OF_ASC_NODE":103.0653,"ARG_OF_PERICENTER":92.8229,"MEAN_ANOMALY":267.2951,"EPHEMERIS_TYPE":0,"CLASSIFICATION_TYPE":"U","NORAD_CAT_ID":50835,"ELEMENT_SET_NO":999,"REV_AT_EPOCH":19776,"BSTAR":-3.4386e-5,"MEAN_MOTION_DOT":-8.35e-6,"MEAN_MOTION_DDOT":0},{"OBJECT_NAME":"STARLINK-3330","OBJECT_ID":"2022-001AK","EPOCH":"2025-07-28T03:07:54.876864","MEAN_MOTION":15.08836953,"ECCENTRICITY":0.0001476,"INCLINATION":53.2185,"RA_OF_ASC_NODE":106.9873,"ARG_OF_PERICENTER":97.8038,"MEAN_ANOMALY":262.3122,"EPHEMERIS_TYPE":0,"CLASSIFICATION_TYPE":"U","NORAD_CAT_ID":50836,"ELEMENT_SET_NO":999,"REV_AT_EPOCH":19626,"BSTAR":1.6398e-5,"MEAN_MOTION_DOT":-2.7e-7,"MEAN_MOTION_DDOT":0},{"OBJECT_NAME":"STARLINK-3318","OBJECT_ID":"2022-001AL","EPOCH":"2025-07-28T09:02:56.864256","MEAN_MOTION":15.08838817,"ECCENTRICITY":0.0001509,"INCLINATION":53.219,"RA_OF_ASC_NODE":96.1019,"ARG_OF_PERICENTER":88.298,"MEAN_ANOMALY":271.8185,"EPHEMERIS_TYPE":0,"CLASSIFICATION_TYPE":"U","NORAD_CAT_ID":50837,"ELEMENT_SET_NO":999,"REV_AT_EPOCH":19654,"BSTAR":-7.8801e-5,"MEAN_MOTION_DOT":-1.542e-5,"MEAN_MOTION_DDOT":0},{"OBJECT_NAME":"STARLINK-3322","OBJECT_ID":"2022-001AM","EPOCH":"2025-07-28T19:33:14.650560","MEAN_MOTION":15.55661951,"ECCENTRICITY":0.0001751,"INCLINATION":53.1894,"RA_OF_ASC_NODE":42.9742,"ARG_OF_PERICENTER":242.062,"MEAN_ANOMALY":118.0215,"EPHEMERIS_TYPE":0,"CLASSIFICATION_TYPE":"U","NORAD_CAT_ID":50838,"ELEMENT_SET_NO":999,"REV_AT_EPOCH":19853,"BSTAR":0.0018668,"MEAN_MOTION_DOT":0.00132252,"MEAN_MOTION_DDOT":0},{"OBJECT_NAME":"STARLINK-3320","OBJECT_ID":"2022-001AN","EPOCH":"2025-07-28T23:46:34.926528","MEAN_MOTION":15.08842522,"ECCENTRICITY":0.0001344,"INCLINATION":53.2179,"RA_OF_ASC_NODE":103.3472,"ARG_OF_PERICENTER":83.8518,"MEAN_ANOMALY":276.2627,"EPHEMERIS_TYPE":0,"CLASSIFICATION_TYPE":"U","NORAD_CAT_ID":50839,"ELEMENT_SET_NO":999,"REV_AT_EPOCH":19776,"BSTAR":3.1146e-5,"MEAN_MOTION_DOT":2.08e-6,"MEAN_MOTION_DDOT":0}]
